{
  "type": "FeatureCollection",
  "features": [
    {
      "type": "Feature",
      "id": "UP",
      "properties": {
        "id": "UP",
        "name": "Uttar Pradesh",
        "level": "state",
        "lat": 26.85,
        "lon": 80.95
      },
      "geometry": {
        "type": "Polygon",
        "coordinates": [
          [
            [77.1, 27.5],
            [77.5, 30.4],
            [80.5, 30.0],
            [84.6, 27.5],
            [84.0, 24.5],
            [82.5, 23.9],
            [78.5, 25.0],
            [77.1, 27.5]
          ]
        ]
      }
    },
    {
      "type": "Feature",
      "id": "MH",
      "properties": {
        "id": "MH",
        "name": "Maharashtra",
        "level": "state",
        "lat": 19.75,
        "lon": 75.71
      },
      "geometry": {
        "type": "Polygon",
        "coordinates": [
          [
            [72.8, 19.0],
            [72.6, 16.0],
            [74.0, 15.6],
            [78.5, 19.5],
            [80.9, 18.8],
            [80.0, 21.5],
            [78.0, 21.5],
            [73.5, 20.2],
            [72.8, 19.0]
          ]
        ]
      }
    },
    {
      "type": "Feature",
      "id": "JH",
      "properties": {
        "id": "JH",
        "name": "Jharkhand",
        "level": "state",
        "lat": 23.6,
        "lon": 85.3
      },
      "geometry": {
        "type": "Polygon",
        "coordinates": [
          [
            [83.3, 24.3],
            [84.0, 25.3],
            [86.0, 25.3],
            [87.9, 25.0],
            [87.5, 23.5],
            [86.5, 21.9],
            [84.5, 21.9],
            [83.3, 22.8],
            [83.3, 24.3]
          ]
        ]
      }
    },
    {
      "type": "Feature",
      "id": "HR",
      "properties": {
        "id": "HR",
        "name": "Haryana",
        "level": "state",
        "lat": 29.06,
        "lon": 76.08
      },
      "geometry": {
        "type": "Polygon",
        "coordinates": [
          [
            [74.5, 29.5],
            [76.5, 30.9],
            [77.5, 30.5],
            [77.4, 28.0],
            [76.2, 27.8],
            [75.0, 28.5],
            [74.5, 29.5]
          ]
        ]
      }
    }
  ]
}
